{
  "type": "FeatureCollection",
  "features": [
    {
      "type": "Feature",
      "properties": {
        "norad_id": 66174,
        "name": "HTV-X1",
        "group": "stations",
        "lat": 38.88384336941902,
        "lon": 165.24158570766693,
        "alt_km": 414.6336516146266,
        "timestamp": "2025-12-16T03:53:25.836532+00:00",
        "meta_object_name": "HTV-X1",
        "meta_object_id": "2025-241A",
        "meta_epoch": "2025-12-15T05:59:35.690496",
        "meta_mean_motion": 15.49601155,
        "meta_eccentricity": 0.00031934,
        "meta_inclination": 51.6306,
        "meta_ra_of_asc_node": 130.0501,
        "meta_arg_of_pericenter": 251.9008,
        "meta_mean_anomaly": 108.1633,
        "meta_ephemeris_type": 0,
        "meta_classification_type": "U",
        "meta_norad_cat_id": 66174,
        "meta_element_set_no": 999,
        "meta_rev_at_epoch": 51,
        "meta_bstar": 0.00013467464,
        "meta_mean_motion_dot": 7.132e-05,
        "meta_mean_motion_ddot": 0,
        "tle_line1": "1 66174U 25241A   25349.24971864  .00007132  00000+0  13467-3 0  9998",
        "tle_line2": "2 66174  51.6306 130.0501 0003193 251.9008 108.1633 15.49601155   513"
      },
      "geometry": {
        "type": "Point",
        "coordinates": [
          165.24158570766693,
          38.88384336941902
        ]
      }
    },
    {
      "type": "Feature",
      "properties": {
        "norad_id": 66515,
        "name": "SZ-21 MODULE",
        "group": "stations",
        "lat": -37.315106629385156,
        "lon": -125.20010923839736,
        "alt_km": 379.4464390093608,
        "timestamp": "2025-12-16T03:53:25.836545+00:00",
        "meta_object_name": "SZ-21 MODULE",
        "meta_object_id": "2025-246C",
        "meta_epoch": "2025-12-15T05:22:01.876512",
        "meta_mean_motion": 15.62622565,
        "meta_eccentricity": 0.00062103,
        "meta_inclination": 41.4777,
        "meta_ra_of_asc_node": 0.893,
        "meta_arg_of_pericenter": 273.7015,
        "meta_mean_anomaly": 86.3114,
        "meta_ephemeris_type": 0,
        "meta_classification_type": "U",
        "meta_norad_cat_id": 66515,
        "meta_element_set_no": 999,
        "meta_rev_at_epoch": 483,
        "meta_bstar": 0.00023307577,
        "meta_mean_motion_dot": 0.00021182,
        "meta_mean_motion_ddot": 0,
        "tle_line1": "1 66515U 25246C   25349.22363283  .00021182  00000+0  23308-3 0  9996",
        "tle_line2": "2 66515  41.4777   0.8930 0006210 273.7015  86.3114 15.62622565  4837"
      },
      "geometry": {
        "type": "Point",
        "coordinates": [
          -125.20010923839736,
          -37.315106629385156
        ]
      }
    },
    {
      "type": "Feature",
      "properties": {
        "norad_id": 66645,
        "name": "SHENZHOU-22",
        "group": "stations",
        "lat": -36.22157940622478,
        "lon": -60.1117100093007,
        "alt_km": 395.3438377936818,
        "timestamp": "2025-12-16T03:53:25.836555+00:00",
        "meta_object_name": "SHENZHOU-22",
        "meta_object_id": "2025-272A",
        "meta_epoch": "2025-12-15T08:10:40.084608",
        "meta_mean_motion": 15.592964,
        "meta_eccentricity": 0.0007961,
        "meta_inclination": 41.4685,
        "meta_ra_of_asc_node": 0.9167,
        "meta_arg_of_pericenter": 52.8673,
        "meta_mean_anomaly": 307.2892,
        "meta_ephemeris_type": 0,
        "meta_classification_type": "U",
        "meta_norad_cat_id": 66645,
        "meta_element_set_no": 999,
        "meta_rev_at_epoch": 26357,
        "meta_bstar": 0.00021537809,
        "meta_mean_motion_dot": 0.00017163,
        "meta_mean_motion_ddot": 0,
        "tle_line1": "1 66645U 25272A   25349.34074172  .00017163  00000+0  21538-3 0  9995",
        "tle_line2": "2 66645  41.4685   0.9167 0007961  52.8673 307.2892 15.59296400263579"
      },
      "geometry": {
        "type": "Point",
        "coordinates": [
          -60.1117100093007,
          -36.22157940622478
        ]
      }
    },
    {
      "type": "Feature",
      "properties": {
        "norad_id": 66664,
        "name": "SOYUZ-MS 28",
        "group": "stations",
        "lat": 38.88384465596945,
        "lon": 165.24158789254787,
        "alt_km": 414.63365144311956,
        "timestamp": "2025-12-16T03:53:25.836565+00:00",
        "meta_object_name": "SOYUZ-MS 28",
        "meta_object_id": "2025-275A",
        "meta_epoch": "2025-12-15T05:59:35.690496",
        "meta_mean_motion": 15.49601155,
        "meta_eccentricity": 0.00031934,
        "meta_inclination": 51.6306,
        "meta_ra_of_asc_node": 130.0501,
        "meta_arg_of_pericenter": 251.9008,
        "meta_mean_anomaly": 108.1633,
        "meta_ephemeris_type": 0,
        "meta_classification_type": "U",
        "meta_norad_cat_id": 66664,
        "meta_element_set_no": 999,
        "meta_rev_at_epoch": 128,
        "meta_bstar": 0.00013467464,
        "meta_mean_motion_dot": 7.132e-05,
        "meta_mean_motion_ddot": 0,
        "tle_line1": "1 66664U 25275A   25349.24971864  .00007132  00000+0  13467-3 0  9999",
        "tle_line2": "2 66664  51.6306 130.0501 0003193 251.9008 108.1633 15.49601155  1282"
      },
      "geometry": {
        "type": "Point",
        "coordinates": [
          165.24158789254787,
          38.88384465596945
        ]
      }
    },
    {
      "type": "Feature",
      "properties": {
        "norad_id": 66906,
        "name": "1998-067XS",
        "group": "stations",
        "lat": 51.19860740308481,
        "lon": -134.74394911169622,
        "alt_km": 408.68033599801856,
        "timestamp": "2025-12-16T03:53:25.836575+00:00",
        "meta_object_name": "1998-067XS",
        "meta_object_id": "1998-067XS",
        "meta_epoch": "2025-12-15T02:43:53.639328",
        "meta_mean_motion": 15.50707714,
        "meta_eccentricity": 0.00033588,
        "meta_inclination": 51.6305,
        "meta_ra_of_asc_node": 130.643,
        "meta_arg_of_pericenter": 213.849,
        "meta_mean_anomaly": 146.2285,
        "meta_ephemeris_type": 0,
        "meta_classification_type": "U",
        "meta_norad_cat_id": 66906,
        "meta_element_set_no": 999,
        "meta_rev_at_epoch": 198,
        "meta_bstar": 0.00033919377,
        "meta_mean_motion_dot": 0.00019441,
        "meta_mean_motion_ddot": 0,
        "tle_line1": "1 66906U 98067XS  25349.11381527  .00019441  00000+0  33919-3 0  9994",
        "tle_line2": "2 66906  51.6305 130.6430 0003358 213.8490 146.2285 15.50707714  1985"
      },
      "geometry": {
        "type": "Point",
        "coordinates": [
          -134.74394911169622,
          51.19860740308481
        ]
      }
    },
    {
      "type": "Feature",
      "properties": {
        "norad_id": 66907,
        "name": "1998-067XT",
        "group": "stations",
        "lat": 40.57419614338645,
        "lon": -97.34099194073691,
        "alt_km": 407.20192101109205,
        "timestamp": "2025-12-16T03:53:25.836585+00:00",
        "meta_object_name": "1998-067XT",
        "meta_object_id": "1998-067XT",
        "meta_epoch": "2025-12-15T05:43:16.597920",
        "meta_mean_motion": 15.51783963,
        "meta_eccentricity": 0.00040993,
        "meta_inclination": 51.6297,
        "meta_ra_of_asc_node": 129.9756,
        "meta_arg_of_pericenter": 241.5907,
        "meta_mean_anomaly": 118.467,
        "meta_ephemeris_type": 0,
        "meta_classification_type": "U",
        "meta_norad_cat_id": 66907,
        "meta_element_set_no": 999,
        "meta_rev_at_epoch": 200,
        "meta_bstar": 0.00079982279,
        "meta_mean_motion_dot": 0.00048484,
        "meta_mean_motion_ddot": 0,
        "tle_line1": "1 66907U 98067XT  25349.23838655  .00048484  00000+0  79982-3 0  9996",
        "tle_line2": "2 66907  51.6297 129.9756 0004099 241.5907 118.4670 15.51783963  2006"
      },
      "geometry": {
        "type": "Point",
        "coordinates": [
          -97.34099194073691,
          40.57419614338645
        ]
      }
    },
    {
      "type": "Feature",
      "properties": {
        "norad_id": 66908,
        "name": "1998-067XU",
        "group": "stations",
        "lat": 38.840961544546786,
        "lon": -94.26417896196243,
        "alt_km": 407.0776455555224,
        "timestamp": "2025-12-16T03:53:25.836596+00:00",
        "meta_object_name": "1998-067XU",
        "meta_object_id": "1998-067XU",
        "meta_epoch": "2025-12-15T02:37:08.426784",
        "meta_mean_motion": 15.51862591,
        "meta_eccentricity": 0.00042185,
        "meta_inclination": 51.6293,
        "meta_ra_of_asc_node": 130.6123,
        "meta_arg_of_pericenter": 240.3757,
        "meta_mean_anomaly": 119.6813,
        "meta_ephemeris_type": 0,
        "meta_classification_type": "U",
        "meta_norad_cat_id": 66908,
        "meta_element_set_no": 999,
        "meta_rev_at_epoch": 198,
        "meta_bstar": 0.00082604654,
        "meta_mean_motion_dot": 0.00050243,
        "meta_mean_motion_ddot": 0,
        "tle_line1": "1 66908U 98067XU  25349.10912531  .00050243  00000+0  82605-3 0  9991",
        "tle_line2": "2 66908  51.6293 130.6123 0004218 240.3757 119.6813 15.51862591  1986"
      },
      "geometry": {
        "type": "Point",
        "coordinates": [
          -94.26417896196243,
          38.840961544546786
        ]
      }
    }
  ]
}